FM-6                    
1 39360U 13058A   26194.96565503 -.00000021  00000+0  00000+0 0  9991
2 39360   0.0142  33.4803 0001390 144.8411 344.7900  1.00270909 46349
RADUGA-1M 3             
1 39375U 13062A   26195.97674124  .00000140  00000+0  00000+0 0  9995
2 39375   6.0270  71.9975 0001951 273.4108 334.0235  1.00272084 46388
SES-8                   
1 39460U 13071A   26196.12317065 -.00000278  00000+0  00000+0 0  9999
2 39460   0.0570 257.7613 0002615 217.4993 317.0454  1.00270131 44700
INMARSAT 5-F1           
1 39476U 13073A   26195.65057160  .00000020  00000+0  00000+0 0  9996
2 39476   0.0167  41.2280 0000561 260.6421 287.4739  1.00270128 45858
TKSAT-1 (TUPAC KATARI)  
1 39481U 13075A   26196.11206894 -.00000204  00000+0  00000+0 0  9991
2 39481   0.0483 234.8186 0002376 235.1318 136.1559  1.00270475 45886
EXPRESS-AM5             
1 39487U 13077A   26196.15700803 -.00000289  00000+0  00000+0 0  9995
2 39487   0.0182 305.8337 0000170 283.5497 260.1854  1.00272181 46647
GSAT-14                 
1 39498U 14001A   26196.14400796 -.00000086  00000+0  00000+0 0  9997
2 39498   0.0161  65.6566 0001931 146.8768 206.2648  1.00270895 45651
THAICOM 6               
1 39500U 14002A   26196.14487464 -.00000130  00000+0  00000+0 0  9999
2 39500   0.0489 111.5499 0004252  13.7437 298.3444  1.00272671 45737
TDRS 12                 
1 39504U 14004A   26196.17683823 -.00000280  00000+0  00000+0 0  9991
2 39504   4.0051  19.5399 0004327 203.9253  92.3598  1.00272486 44553
ABS-2                   
1 39508U 14006A   26196.18913896  .00000000  00000+0  00000+0 0  9993
2 39508   0.0202  44.7486 0003328  55.6995 335.6071  1.00269776 45551
ATHENA-FIDUS            
1 39509U 14006B   26196.13681461  .00000145  00000+0  00000+0 0  9999
2 39509   0.0238 100.0276 0001285  17.7057 262.2934  1.00271490 45360
TURKSAT 4A              
1 39522U 14007A   26196.13768127  .00000137  00000+0  00000+0 0  9991
2 39522   0.0961 277.8956 0001320 323.8933 142.7657  1.00273273 45242
EXPRESS-AT1             
1 39612U 14010A   26196.21371094 -.00000018  00000+0  00000+0 0  9996
2 39612   0.3271  85.3041 0004399  56.5135 294.0687  1.00309030 45097
EXPRESS-AT2             
1 39613U 14010B   26196.14045463  .00000070  00000+0  00000+0 0  9994
2 39613   0.0158 352.5245 0000247  20.9315  26.0879  1.00270674 44778
AMAZONAS 4A             
1 39616U 14011A   26196.11466895 -.00000261  00000+0  00000+0 0  9994
2 39616   0.0594 195.8691 0004714 302.6999 121.6741  1.00269550 44994
ASTRA 5B                
1 39617U 14011B   26196.13404125  .00000127  00000+0  00000+0 0  9995
2 39617   0.0770 301.8806 0001849 178.8437 243.9961  1.00267986 44942
IRNSS-1B                
1 39635U 14017A   26195.71238846  .00000134  00000+0  00000+0 0  9997
2 39635  28.8764 239.9282 0022292 191.6992 172.5370  1.00275623 45079
LUCH-5V                 
1 39727U 14023A   26196.12317065 -.00000281  00000+0  00000+0 0  9997
2 39727   5.1992  69.4461 0002073  85.1988 277.3885  1.00273643 44641
KAZSAT-3                
1 39728U 14023B   26196.14097463  .00000052  00000+0  00000+0 0  9992
2 39728   0.0113  21.2630 0000224 259.3375 121.6246  1.00270220 42734
EUTELSAT 3B             
1 39773U 14030A   26196.12996791  .00000010  00000+0  00000+0 0  9994
2 39773   0.0609   1.3118 0004107 113.9743 227.5647  1.00270857 44348
ASIASAT 8 (AMOS-7)      
1 40107U 14046A   26195.73441069 -.00000340  00000+0  00000+0 0  9990
2 40107   0.0176  30.3385 0001351  98.4249 173.4815  1.00267643102423
ASIASAT 6               
1 40141U 14052A   26195.58276944 -.00000370  00000+0  00000+0 0  9999
2 40141   0.0173  47.8834 0000722 109.3513 104.9159  1.00270746 43351
OPTUS 10                
1 40146U 14054A   26196.20183799 -.00000157  00000+0  00000+0 0  9994
2 40146   0.1216 344.0958 0001975 131.4019  46.2170  1.00270576 43310
MEASAT-3B               
1 40147U 14054B   26195.29190285 -.00000248  00000+0  00000+0 0  9992
2 40147   0.0418  50.4787 0003344  18.1485  60.0938  1.00269704 43184
HIMAWARI-8              
1 40267U 14060A   26196.13725376 -.00000285  00000+0  00000+0 0  9992
2 40267   0.0168   0.9708 0001082 168.4507 313.6467  1.00271457 43040
IRNSS-1C                
1 40269U 14061A   26195.70643862 -.00000175  00000+0  00000+0 0  9994
2 40269   6.5853  88.4083 0022094   5.4026 176.1158  1.00272415 42967
INTELSAT 30 (IS-30)     
1 40271U 14062A   26196.11050894 -.00000160  00000+0  00000+0 0  9995
2 40271   0.0179  50.7701 0001302 335.3265 211.5942  1.00269581  7076
ARSAT 1                 
1 40272U 14062B   26196.12447029 -.00000269  00000+0  00000+0 0  9997
2 40272   0.0386 290.5176 0001740 181.7080 153.7480  1.00269928 42901
EUTELSAT 53A            
1 40277U 14064A   26195.86470091  .00000089  00000+0  00000+0 0  9998
2 40277   0.0179 312.4953 0001654 244.5282  99.9853  1.00271750 41842
GSAT-16                 
1 40332U 14078A   26195.07090686  .00000000  00000+0  00000+0 0  9999
2 40332   0.0209  41.7088 0007260  51.1336 279.7235  1.00272595 42379
DIRECTV 14              
1 40333U 14078B   26196.10972894 -.00000135  00000+0  00000+0 0  9995
2 40333   0.0135  46.9408 0000389 291.2446 255.0349  1.00271746 42320
YAMAL 401               
1 40345U 14082A   26196.16225348  .00000000  00000+0  00000+0 0  9994
2 40345   0.0143  63.9060 0000352  51.5355 325.9347  1.00269630 42190
