OBJECT_NAME,OBJECT_ID,EPOCH,MEAN_MOTION,ECCENTRICITY,INCLINATION,RA_OF_ASC_NODE,ARG_OF_PERICENTER,MEAN_ANOMALY,EPHEMERIS_TYPE,CLASSIFICATION_TYPE,NORAD_CAT_ID,ELEMENT_SET_NO,REV_AT_EPOCH,BSTAR,MEAN_MOTION_DOT,MEAN_MOTION_DDOT
FM-6,2013-058A,2026-07-13T23:10:32.594592,1.00270909,.00013903,0.0142,33.4803,144.8411,344.7900,0,U,39360,999,4634,0,-.21E-6,0
RADUGA-1M 3,2013-062A,2026-07-14T23:26:30.443136,1.00272084,.0001951,6.0270,71.9975,273.4108,334.0235,0,U,39375,999,4638,0,.14E-5,0
SES-8,2013-071A,2026-07-15T02:57:21.944160,1.00270131,.0002615,0.0570,257.7613,217.4993,317.0454,0,U,39460,999,4470,0,-.278E-5,0
INMARSAT 5-F1,2013-073A,2026-07-14T15:36:49.386240,1.00270128,.0000561,0.0167,41.2280,260.6421,287.4739,0,U,39476,999,4585,0,.2E-6,0
TKSAT-1 (TUPAC KATARI),2013-075A,2026-07-15T02:41:22.756416,1.00270475,.0002376,0.0483,234.8186,235.1318,136.1559,0,U,39481,999,4588,0,-.204E-5,0
EXPRESS-AM5,2013-077A,2026-07-15T03:46:05.493792,1.00272181,.000017,0.0182,305.8337,283.5497,260.1854,0,U,39487,999,4664,0,-.289E-5,0
GSAT-14,2014-001A,2026-07-15T03:27:22.287744,1.00270895,.0001931,0.0161,65.6566,146.8768,206.2648,0,U,39498,999,4565,0,-.86E-6,0
THAICOM 6,2014-002A,2026-07-15T03:28:37.168896,1.00272671,.0004252,0.0489,111.5499,13.7437,298.3444,0,U,39500,999,4573,0,-.13E-5,0
TDRS 12,2014-004A,2026-07-15T04:14:38.823072,1.00272486,.0004327,4.0051,19.5399,203.9253,92.3598,0,U,39504,999,4455,0,-.28E-5,0
ABS-2,2014-006A,2026-07-15T04:32:21.606144,1.00269776,.0003328,0.0202,44.7486,55.6995,335.6071,0,U,39508,999,4555,0,0,0
ATHENA-FIDUS,2014-006B,2026-07-15T03:17:00.782304,1.00271490,.0001285,0.0238,100.0276,17.7057,262.2934,0,U,39509,999,4536,0,.145E-5,0
TURKSAT 4A,2014-007A,2026-07-15T03:18:15.661728,1.00273273,.000132,0.0961,277.8956,323.8933,142.7657,0,U,39522,999,4524,0,.137E-5,0
EXPRESS-AT1,2014-010A,2026-07-15T05:07:44.625216,1.00309030,.0004399,0.3271,85.3041,56.5135,294.0687,0,U,39612,999,4509,0,-.18E-6,0
EXPRESS-AT2,2014-010B,2026-07-15T03:22:15.280032,1.00270674,.0000247,0.0158,352.5245,20.9315,26.0879,0,U,39613,999,4477,0,.7E-6,0
AMAZONAS 4A,2014-011A,2026-07-15T02:45:07.397280,1.00269550,.0004714,0.0594,195.8691,302.6999,121.6741,0,U,39616,999,4499,0,-.261E-5,0
ASTRA 5B,2014-011B,2026-07-15T03:13:01.164000,1.00267986,.0001849,0.0770,301.8806,178.8437,243.9961,0,U,39617,999,4494,0,.127E-5,0
IRNSS-1B,2014-017A,2026-07-14T17:05:50.362944,1.00275623,.00222921,28.8764,239.9282,191.6992,172.5370,0,U,39635,999,4507,0,.134E-5,0
LUCH-5V,2014-023A,2026-07-15T02:57:21.944160,1.00273643,.0002073,5.1992,69.4461,85.1988,277.3885,0,U,39727,999,4464,0,-.281E-5,0
KAZSAT-3,2014-023B,2026-07-15T03:23:00.208032,1.00270220,.0000224,0.0113,21.2630,259.3375,121.6246,0,U,39728,999,4273,0,.52E-6,0
EUTELSAT 3B,2014-030A,2026-07-15T03:07:09.227424,1.00270857,.0004107,0.0609,1.3118,113.9743,227.5647,0,U,39773,999,4434,0,.1E-6,0
ASIASAT 8 (AMOS-7),2014-046A,2026-07-14T17:37:33.083616,1.00267643,.00013512,0.0176,30.3385,98.4249,173.4815,0,U,40107,999,10242,0,-.34E-5,0
ASIASAT 6,2014-052A,2026-07-14T13:59:11.279616,1.00270746,.00007222,0.0173,47.8834,109.3513,104.9159,0,U,40141,999,4335,0,-.37E-5,0
OPTUS 10,2014-054A,2026-07-15T04:50:38.802336,1.00270576,.0001975,0.1216,344.0958,131.4019,46.2170,0,U,40146,999,4331,0,-.157E-5,0
MEASAT-3B,2014-054B,2026-07-14T07:00:20.406240,1.00269704,.00033445,0.0418,50.4787,18.1485,60.0938,0,U,40147,999,4318,0,-.248E-5,0
HIMAWARI-8,2014-060A,2026-07-15T03:17:38.724864,1.00271457,.0001082,0.0168,0.9708,168.4507,313.6467,0,U,40267,999,4304,0,-.285E-5,0
IRNSS-1C,2014-061A,2026-07-14T16:57:16.296768,1.00272415,.0022094,6.5853,88.4083,5.4026,176.1158,0,U,40269,999,4296,0,-.175E-5,0
INTELSAT 30 (IS-30),2014-062A,2026-07-15T02:39:07.972416,1.00269581,.0001302,0.0179,50.7701,335.3265,211.5942,0,U,40271,999,707,0,-.16E-5,0
ARSAT 1,2014-062B,2026-07-15T02:59:14.233056,1.00269928,.000174,0.0386,290.5176,181.7080,153.7480,0,U,40272,999,4290,0,-.269E-5,0
EUTELSAT 53A,2014-064A,2026-07-14T20:45:10.158624,1.00271750,.0001654,0.0179,312.4953,244.5282,99.9853,0,U,40277,999,4184,0,.89E-6,0
GSAT-16,2014-078A,2026-07-14T01:42:06.352704,1.00272595,.000726,0.0209,41.7088,51.1336,279.7235,0,U,40332,999,4237,0,0,0
DIRECTV 14,2014-078B,2026-07-15T02:38:00.580416,1.00271746,.0000389,0.0135,46.9408,291.2446,255.0349,0,U,40333,999,4232,0,-.135E-5,0
YAMAL 401,2014-082A,2026-07-15T03:53:38.700672,1.00269630,.0000352,0.0143,63.9060,51.5355,325.9347,0,U,40345,999,4219,0,0,0
